KANOPUS-V 1             
1 38707U 12039A   20203.23185245  .00000552  00000-0  29431-4 0  9992
2 38707  97.4592 121.7169 0001725  79.8900  75.3663 15.19200973443635
EXACTVIEW-1 (ADS-1B)    
1 38709U 12039C   20202.98561424 -.00000048  00000-0 -12250-6 0  9997
2 38709  99.1063 237.3992 0010104 257.7554 102.2491 14.24021040415628
SPOT 6                  
1 38755U 12047A   20203.15798687 -.00000045  00000-0  35714-8 0  9998
2 38755  98.1653 269.3762 0001089  91.1837 268.9497 14.58570067418656
PLEIADES 1B             
1 39019U 12068A   20203.10864132 -.00000051  00000-0 -12283-5 0  9990
2 39019  98.1979 277.1773 0001349  87.2388 272.8967 14.58552031406425
GOKTURK 2               
1 39030U 12073A   20203.00863570 -.00000004  00000-0  70941-5 0  9995
2 39030  97.9472  89.9725 0002629  61.3661 298.7820 14.72757121406842
LANDSAT 8               
1 39084U 13008A   20203.11535366  .00000005  00000-0  11293-4 0  9998
2 39084  98.2246 272.3960 0001439  97.5821 262.5545 14.57106266395605
SARAL                   
1 39086U 13009A   20203.13460484 -.00000020  00000-0  86897-5 0  9992
2 39086  98.5438  28.1829 0001797 117.6143 242.5223 14.32029692386827
GAOFEN 1                
1 39150U 13018A   20203.20563634 -.00000841  00000-0 -11303-3 0  9993
2 39150  97.8678 279.1641 0019627  13.2705 346.9088 14.76542815389997
VNREDSAT 1              
1 39160U 13021B   20203.17030671  .00000010  00000-0  11087-4 0  9990
2 39160  98.1471 279.2933 0001395  97.3850 262.7533 14.62938701384819
ARIRANG-5 (KOMPSAT-5)   
1 39227U 13042A   20203.11767672 -.00000501  00000-0 -31448-4 0  9999
2 39227  97.6251  26.8063 0001796  83.8797  31.1544 15.04505287379582
YAOGAN 18               
1 39363U 13059A   20203.20049929  .00013779  00000-0  96134-4 0  9998
2 39363  97.2474 254.6443 0024282  80.5936 351.3422 15.74021493373061
SKYSAT-1                
1 39418U 13066C   20202.78812735 -.00000288  00000-0 -18842-4 0  9995
2 39418  97.6249 281.5727 0023558  86.4549 273.9368 14.98987475364277
DUBAISAT-2              
1 39419U 13066D   20203.13932363 -.00000322  00000-0 -24985-4 0  9990
2 39419  97.5402 255.8769 0015407  93.1471 267.1505 14.94135100363207
GPM-CORE                
1 39574U 14009C   20202.89601756  .00001418  00000-0  25072-4 0  9994
2 39574  65.0049  37.8699 0010799 280.5803  79.4126 15.55392133363242
SENTINEL-1A             
1 39634U 14016A   20203.17896907 -.00000119  00000-0 -15569-4 0  9994
2 39634  98.1828 209.6838 0001256  84.9200 275.2145 14.59196519335485
KAZEOSAT 1              
1 39731U 14024A   20203.10568828 -.00000033  00000-0  29466-5 0  9998
2 39731  98.3164 275.3049 0001049  91.0306 269.1005 14.42063130327738
ALOS-2                  
1 39766U 14029A   20203.19229085 -.00000208  00000-0 -20965-4 0  9998
2 39766  97.9232 299.3068 0001592  94.8807 265.2601 14.79469549332687
KAZEOSAT 2              
1 40010U 14033A   20203.23891443  .00000004  00000-0  70961-5 0  9999
2 40010  97.8030  98.2843 0015746 188.7334 171.3615 14.82119166329327
HODOYOSHI-4             
1 40011U 14033B   20203.24192184  .00000035  00000-0  11157-4 0  9992
2 40011  97.7721  90.3942 0026366 188.8820 171.1941 14.81203374329029
DEIMOS-2                
1 40013U 14033D   20203.19629878  .00000137  00000-0  22440-4 0  9993
2 40013  97.8152 105.0503 0000512 116.3834 243.7442 14.84673567329876
HODOYOSHI-3             
1 40015U 14033F   20202.62014289  .00000029  00000-0  10909-4 0  9993
2 40015  97.7335  76.7753 0036216 209.9905 149.9233 14.78600414328350
SPOT 7                  
1 40053U 14034A   20203.19310542 -.00000043  00000-0  59457-6 0  9990
2 40053  98.1811 269.7258 0001081  93.0141 267.1190 14.58562180322596
SKYSAT-2                
1 40072U 14037D   20202.73618141  .00000055  00000-0  14655-4 0  9990
2 40072  98.4617  22.8495 0007128  37.9998 322.1715 14.81297438326091
WORLDVIEW-3 (WV-3)      
1 40115U 14048A   20203.18180710 -.00000043  00000-0  10611-5 0  9993
2 40115  97.7781 278.2917 0001198 123.4745 236.6609 14.85127410321802
GAOFEN 2                
1 40118U 14049A   20203.17965107  .00000003  00000-0  70550-5 0  9990
2 40118  97.8395 279.6783 0009237  64.6118 295.6065 14.80639865320060
YAOGAN 21               
1 40143U 14053A   20203.22472294  .00000517  00000-0  24577-4 0  9996
2 40143  97.4381 269.6636 0016851 147.3188 289.1847 15.23548160326541
YAOGAN 22               
1 40275U 14063A   20203.03999960 -.00000007  00000-0  10000-3 0  9996
2 40275 100.5021 316.5660 0006422  31.4070 328.7431 13.15423029276187
ASNARO                  
1 40298U 14070A   20203.18917061  .00000610  00000-0  31799-4 0  9995
2 40298  97.4179 284.7541 0001824 103.5680 286.6655 15.19607324316467
HODOYOSHI-1             
1 40299U 14070B   20203.19240072  .00000371  00000-0  18101-4 0  9994
2 40299  97.3219 279.1455 0014708  78.7604 308.8808 15.24105306316958
QSAT-EOS                
1 40301U 14070D   20203.19104466  .00001078  00000-0  42965-4 0  9994
2 40301  97.2926 276.8625 0026722  70.4525 312.0427 15.27041327317083
YAOGAN 23               
1 40305U 14071A   20203.15355216  .00000462  00000-0  25926-4 0  9990
2 40305  97.5266 142.5130 0002327  55.8091  68.6727 15.18194760314845
YAOGAN 24               
1 40310U 14072A   20203.14697289  .00000020  00000-0  10155-4 0  9993
2 40310  97.9032 324.4685 0017977  21.9543 338.2438 14.76301408305505
CBERS 4                 
1 40336U 14079A   20203.19577319 -.00000042  00000-0  75113-6 0  9996
2 40336  98.5608 274.5919 0001389  59.6710 300.4615 14.35415186294529
RESURS P2               
1 40360U 14087A   20203.23978781  .00000369  00000-0  13682-4 0  9997
2 40360  97.2466 291.3833 0010954  69.1004 347.8819 15.33585313311492
YAOGAN 26               
1 40362U 14088A   20203.17722194  .00000482  00000-0  22956-4 0  9998
2 40362  97.2462 269.9946 0010577  27.2761  50.8864 15.23625668310006
SMAP                    
1 40376U 15003A   20203.16495417  .00000015  00000-0  12012-4 0  9999
2 40376  98.1226 209.2009 0000903 102.1536 257.9765 14.63357206292159
KOMPSAT-3A              
1 40536U 15014A   20203.09957628  .00000513  00000-0  33341-4 0  9999
2 40536  97.5438 142.2058 0001734  57.8650  58.8410 15.12311203293801
SENTINEL-2A             
1 40697U 15028A   20203.10967233 -.00000040  00000-0  14356-5 0  9999
2 40697  98.5688 276.8716 0001118  85.6218 274.5107 14.30815902265271
GAOFEN 8                
1 40701U 15030A   20203.22757022  .00000496  00000-0  23779-4 0  9996
2 40701  97.4768 325.5947 0010831  34.9568  57.0215 15.23520850282382
CARBONITE 1 (CBNT-1)    
1 40718U 15032D   20203.04359967  .00000080  00000-0  19225-4 0  9992
2 40718  97.8350  82.8926 0018103 101.8341 258.4908 14.74824451270768
YAOGAN 27               
1 40878U 15040A   20203.06069874 -.00000005  00000-0  10000-3 0  9994
2 40878 100.2302 250.2642 0008975 142.9951 217.1774 13.15965939235435
GAOFEN 9                
1 40894U 15047A   20203.18553674 -.00000007  00000-0  63856-5 0  9999
2 40894  97.8892 281.6789 0032161 300.8707  58.9357 14.76310252261455
LAPAN-A2                
1 40931U 15052B   20203.12006313  .00000674  00000-0  47685-5 0  9995
2 40931   5.9987  95.2991 0013393  30.6392 329.4573 14.76639176260241
YAOGAN 28               
1 41026U 15064A   20203.17275079  .00000334  00000-0  16980-4 0  9992
2 41026  97.4593 334.7400 0001606  29.0902  73.1076 15.23493479262223
YAOGAN 29               
1 41038U 15069A   20203.02999773  .00000002  00000-0  72148-5 0  9999
2 41038  98.0117 190.9484 0001983 106.0996 254.0432 14.80453144251249
KENT RIDGE 1            
1 41167U 15077B   20202.68593750  .00000788  00000-0  80019-5 0  9994
2 41167  14.9776 242.3714 0011215 107.6882 186.6600 15.09163980253807
TELEOS 1                
1 41169U 15077D   20202.68506300  .00000893  00000-0  13353-4 0  9994
2 41169  14.9798 226.4116 0010297 134.2447 225.8719 15.10572340253953
GAOFEN 4                
1 41194U 15083A   20203.23676372 -.00000335  00000-0  00000+0 0  9990
2 41194   0.0690 102.5388 0003568  73.9623 313.8866  1.00272523 16863
JASON-3                 
1 41240U 16002A   20202.84715566 -.00000044  00000-0  73070-4 0  9998
2 41240  66.0417 295.7855 0008122 266.3704  93.6382 12.80931430210835
SENTINEL-3A             
1 41335U 16011A   20203.09170435 -.00000008  00000-0  14596-4 0  9999
2 41335  98.6226 269.3656 0001465  93.6906 266.4442 14.26737553230474
SENTINEL-1B             
1 41456U 16025A   20203.14419667 -.00000072  00000-0 -55075-5 0  9997
2 41456  98.1829 209.4752 0001328  86.5420 273.5931 14.59197403225649
ZIYUAN 3-2 (ZY 3-2)     
1 41556U 16033A   20203.18629369  .00000400  00000-0  20868-4 0  9997
2 41556  97.3630 277.5434 0001697 257.8149 181.9841 15.21326231230049
NUSAT-1 (FRESCO)        
1 41557U 16033B   20203.23475585  .00000676  00000-0  27386-4 0  9990
2 41557  97.4042 293.2408 0012636 335.0718  24.9910 15.28083465230937
NUSAT-2 (BATATA)        
1 41558U 16033C   20203.09086756  .00000739  00000-0  27970-4 0  9992
2 41558  97.4100 295.5267 0011594 332.8096  27.2536 15.30075665231035
CARTOSAT-2C             
1 41599U 16040A   20203.16083499  .00000297  00000-0  17309-4 0  9998
2 41599  97.4477 262.1839 0015602  93.7008 343.8821 15.19257583226218
SKYSAT-C1               
1 41601U 16040C   20202.84621845  .00000751  00000-0  22423-4 0  9997
2 41601  97.2238 280.0817 0005469  54.2619 305.9135 15.37688271226848
LAPAN-A3                
1 41603U 16040E   20203.17841416  .00000082  00000-0  68927-5 0  9991
2 41603  97.3072 255.6628 0015101  84.8175 350.4532 15.19850973226267
BIROS                   
1 41604U 16040F   20202.91252620  .00000284  00000-0  15353-4 0  9994
2 41604  97.3124 259.4690 0013903  70.2519 290.0216 15.22067318226463
GAOFEN 3                
1 41727U 16049A   20203.25973633 -.00000051  00000-0 -23049-5 0  9997
2 41727  98.4118 210.4045 0000797 103.6638 256.4641 14.42215591207742
SKYSAT-C4               
1 41771U 16058B   20202.73551901  .00000742  00000-0  22075-4 0  9990
2 41771  97.2079 272.2837 0001893 112.8429 247.3017 15.37818376213789
